{"type": "FeatureCollection", "features": [ {"type": "Feature", "properties": {"norad_id": 66406, "name": "STARLINK-34840", "group": "last-30-days", "lat": 9.27843545014249, "lon": -68.34279984917256, "alt_km": 417.2355734679095, "timestamp": "2025-12-08T08:58:59.555551+00:00", "meta": {"OBJECT_NAME": "STARLINK-34840", "OBJECT_ID": "2025-257AC", "EPOCH": "2025-12-07T22:05:47.222016", "MEAN_MOTION": 15.49338319, "ECCENTRICITY": 0.00017376, "INCLINATION": 53.1587, "RA_OF_ASC_NODE": 286.7914, "ARG_OF_PERICENTER": 62.6504, "MEAN_ANOMALY": 297.4682, "EPHEMERIS_TYPE": 0, "CLASSIFICATION_TYPE": "U", "NORAD_CAT_ID": 66406, "ELEMENT_SET_NO": 999, "REV_AT_EPOCH": 557, "BSTAR": 0.0021632944, "MEAN_MOTION_DOT": 0.00121886, "MEAN_MOTION_DDOT": 0}, "tle": {"line1": "1 66406U 25257AC  25341.92068544  .00121886  00000+0  21633-2 0  9998", "line2": "2 66406  53.1587 286.7914 0001737  62.6504 297.4682 15.49338319  5572"}}, "geometry": {"type": "Point", "coordinates": [-68.34279984917256, 9.27843545014249]}}, {"type": "Feature", "properties": {"norad_id": 66407, "name": "STARLINK-35686", "group": "last-30-days", "lat": 6.960442577889896, "lon": -70.12317362698434, "alt_km": 417.49227305174463, "timestamp": "2025-12-08T08:58:59.555562+00:00", "meta": {"OBJECT_NAME": "STARLINK-35686", "OBJECT_ID": "2025-257AD", "EPOCH": "2025-12-07T06:37:50.728512", "MEAN_MOTION": 15.49392932, "ECCENTRICITY": 0.00012662, "INCLINATION": 53.1588, "RA_OF_ASC_NODE": 289.8788, "ARG_OF_PERICENTER": 98.048, "MEAN_ANOMALY": 262.0672, "EPHEMERIS_TYPE": 0, "CLASSIFICATION_TYPE": "U", "NORAD_CAT_ID": 66407, "ELEMENT_SET_NO": 999, "REV_AT_EPOCH": 553, "BSTAR": 0.0027900349, "MEAN_MOTION_DOT": 0.00158374, "MEAN_MOTION_DDOT": 0}, "tle": {"line1": "1 66407U 25257AD  25341.27628158  .00158374  00000+0  27900-2 0  9995", "line2": "2 66407  53.1588 289.8788 0001266  98.0480 262.0672 15.49392932  5534"}}, "geometry": {"type": "Point", "coordinates": [-70.12317362698434, 6.960442577889896]}}, {"type": "Feature", "properties": {"norad_id": 66408, "name": "STARLINK-35679", "group": "last-30-days", "lat": 8.088453856114775, "lon": -69.25879316229839, "alt_km": 417.9361477916964, "timestamp": "2025-12-08T08:58:59.555573+00:00", "meta": {"OBJECT_NAME": "STARLINK-35679", "OBJECT_ID": "2025-257AE", "EPOCH": "2025-12-07T05:04:27.952896", "MEAN_MOTION": 15.49312249, "ECCENTRICITY": 0.00011643, "INCLINATION": 53.1586, "RA_OF_ASC_NODE": 290.1876, "ARG_OF_PERICENTER": 106.4329, "MEAN_ANOMALY": 253.6808, "EPHEMERIS_TYPE": 0, "CLASSIFICATION_TYPE": "U", "NORAD_CAT_ID": 66408, "ELEMENT_SET_NO": 999, "REV_AT_EPOCH": 552, "BSTAR": 0.0019260579, "MEAN_MOTION_DOT": 0.00108178, "MEAN_MOTION_DDOT": 0}, "tle": {"line1": "1 66408U 25257AE  25341.21143464  .00108178  00000+0  19261-2 0  9990", "line2": "2 66408  53.1586 290.1876 0001164 106.4329 253.6808 15.49312249  5528"}}, "geometry": {"type": "Point", "coordinates": [-69.25879316229839, 8.088453856114775]}}, {"type": "Feature", "properties": {"norad_id": 66409, "name": "CHUTIAN-2 A", "group": "last-30-days", "lat": -19.676407639157308, "lon": 50.19655337848172, "alt_km": 739.2218989756766, "timestamp": "2025-12-08T08:58:59.555586+00:00", "meta": {"OBJECT_NAME": "CHUTIAN-2 A", "OBJECT_ID": "2025-256A", "EPOCH": "2025-12-07T23:08:15.459648", "MEAN_MOTION": 14.49931552, "ECCENTRICITY": 0.00134577, "INCLINATION": 98.2776, "RA_OF_ASC_NODE": 46.8096, "ARG_OF_PERICENTER": 192.2146, "MEAN_ANOMALY": 167.8724, "EPHEMERIS_TYPE": 0, "CLASSIFICATION_TYPE": "U", "NORAD_CAT_ID": 66409, "ELEMENT_SET_NO": 999, "REV_AT_EPOCH": 418, "BSTAR": 0.00029814595, "MEAN_MOTION_DOT": 1.11e-05, "MEAN_MOTION_DDOT": 0}, "tle": {"line1": "1 66409U 25256A   25341.96406782  .00001110  00000+0  29815-3 0  9992", "line2": "2 66409  98.2776  46.8096 0013457 192.2146 167.8724 14.49931552  4185"}}, "geometry": {"type": "Point", "coordinates": [50.19655337848172, -19.676407639157308]}}, {"type": "Feature", "properties": {"norad_id": 66410, "name": "CHUTIAN-2 B", "group": "last-30-days", "lat": 58.97368075583749, "lon": 33.24490302010757, "alt_km": 723.3539494811766, "timestamp": "2025-12-08T08:58:59.555597+00:00", "meta": {"OBJECT_NAME": "CHUTIAN-2 B", "OBJECT_ID": "2025-256B", "EPOCH": "2025-12-07T22:46:37.554528", "MEAN_MOTION": 14.51016187, "ECCENTRICITY": 0.00135425, "INCLINATION": 98.2801, "RA_OF_ASC_NODE": 46.8374, "ARG_OF_PERICENTER": 195.8968, "MEAN_ANOMALY": 164.1803, "EPHEMERIS_TYPE": 0, "CLASSIFICATION_TYPE": "U", "NORAD_CAT_ID": 66410, "ELEMENT_SET_NO": 999, "REV_AT_EPOCH": 418, "BSTAR": 0.00028379984, "MEAN_MOTION_DOT": 1.08e-05, "MEAN_MOTION_DDOT": 0}, "tle": {"line1": "1 66410U 25256B   25341.94904577  .00001080  00000+0  28380-3 0  9999", "line2": "2 66410  98.2801  46.8374 0013542 195.8968 164.1803 14.51016187  4180"}}, "geometry": {"type": "Point", "coordinates": [33.24490302010757, 58.97368075583749]}}, {"type": "Feature", "properties": {"norad_id": 66411, "name": "ZK-1A R/B", "group": "last-30-days", "lat": -50.21130982990275, "lon": 59.964662354910566, "alt_km": 463.15650487301536, "timestamp": "2025-12-08T08:58:59.555607+00:00", "meta": {"OBJECT_NAME": "ZK-1A R/B", "OBJECT_ID": "2025-256C", "EPOCH": "2025-12-07T22:00:49.054752", "MEAN_MOTION": 15.01812604, "ECCENTRICITY": 0.02287865, "INCLINATION": 98.3228, "RA_OF_ASC_NODE": 49.3505, "ARG_OF_PERICENTER": 261.0726, "MEAN_ANOMALY": 96.4536, "EPHEMERIS_TYPE": 0, "CLASSIFICATION_TYPE": "U", "NORAD_CAT_ID": 66411, "ELEMENT_SET_NO": 999, "REV_AT_EPOCH": 432, "BSTAR": 0.00079727601, "MEAN_MOTION_DOT": 0.00018346, "MEAN_MOTION_DDOT": 0}, "tle": {"line1": "1 66411U 25256C   25341.91723443  .00018346  00000+0  79728-3 0  9993", "line2": "2 66411  98.3228  49.3505 0228786 261.0726  96.4536 15.01812604  4325"}}, "geometry": {"type": "Point", "coordinates": [59.964662354910566, -50.21130982990275]}}, {"type": "Feature", "properties": {"norad_id": 66412, "name": "HULIANWANG DIGUI 13A", "group": "last-30-days", "lat": 47.839272317131986, "lon": -11.618000012623318, "alt_km": 814.920656687349, "timestamp": "2025-12-08T08:58:59.555618+00:00", "meta": {"OBJECT_NAME": "HULIANWANG DIGUI 13A", "OBJECT_ID": "2025-258A", "EPOCH": "2025-12-07T17:26:33.751392", "MEAN_MOTION": 14.21250718, "ECCENTRICITY": 0.00096493, "INCLINATION": 50.0044, "RA_OF_ASC_NODE": 283.107, "ARG_OF_PERICENTER": 339.1083, "MEAN_ANOMALY": 20.9434, "EPHEMERIS_TYPE": 0, "CLASSIFICATION_TYPE": "U", "NORAD_CAT_ID": 66412, "ELEMENT_SET_NO": 999, "REV_AT_EPOCH": 394, "BSTAR": 0.00032412473, "MEAN_MOTION_DOT": 5.52e-06, "MEAN_MOTION_DDOT": 0}, "tle": {"line1": "1 66412U 25258A   25341.72677953  .00000552  00000+0  32412-3 0  9998", "line2": "2 66412  50.0044 283.1070 0009649 339.1083  20.9434 14.21250718  3949"}}, "geometry": {"type": "Point", "coordinates": [-11.618000012623318, 47.839272317131986]}}, {"type": "Feature", "properties": {"norad_id": 66413, "name": "HULIANWANG DIGUI 13B", "group": "last-30-days", "lat": 21.30091161918169, "lon": -60.4254774147928, "alt_km": 816.9085084489798, "timestamp": "2025-12-08T08:58:59.555629+00:00", "meta": {"OBJECT_NAME": "HULIANWANG DIGUI 13B", "OBJECT_ID": "2025-258B", "EPOCH": "2025-12-07T17:39:20.776896", "MEAN_MOTION": 14.20568252, "ECCENTRICITY": 0.00084033, "INCLINATION": 50.0028, "RA_OF_ASC_NODE": 283.142, "ARG_OF_PERICENTER": 336.6318, "MEAN_ANOMALY": 23.4211, "EPHEMERIS_TYPE": 0, "CLASSIFICATION_TYPE": "U", "NORAD_CAT_ID": 66413, "ELEMENT_SET_NO": 999, "REV_AT_EPOCH": 394, "BSTAR": 0.00040277083, "MEAN_MOTION_DOT": 7.14e-06, "MEAN_MOTION_DDOT": 0}, "tle": {"line1": "1 66413U 25258B   25341.73565714  .00000714  00000+0  40277-3 0  9999", "line2": "2 66413  50.0028 283.1420 0008403 336.6318  23.4211 14.20568252  3946"}}, "geometry": {"type": "Point", "coordinates": [-60.4254774147928, 21.30091161918169]}}, {"type": "Feature", "properties": {"norad_id": 66414, "name": "HULIANWANG DIGUI 13C", "group": "last-30-days", "lat": 33.34759863369207, "lon": -46.01423625707104, "alt_km": 816.7848991003302, "timestamp": "2025-12-08T08:58:59.555639+00:00", "meta": {"OBJECT_NAME": "HULIANWANG DIGUI 13C", "OBJECT_ID": "2025-258C", "EPOCH": "2025-12-07T20:56:56.145120", "MEAN_MOTION": 14.20411501, "ECCENTRICITY": 0.00083434, "INCLINATION": 50.0056, "RA_OF_ASC_NODE": 282.5518, "ARG_OF_PERICENTER": 340.5242, "MEAN_ANOMALY": 19.535, "EPHEMERIS_TYPE": 0, "CLASSIFICATION_TYPE": "U", "NORAD_CAT_ID": 66414, "ELEMENT_SET_NO": 999, "REV_AT_EPOCH": 396, "BSTAR": 0.00045717883, "MEAN_MOTION_DOT": 8.29e-06, "MEAN_MOTION_DDOT": 0}, "tle": {"line1": "1 66414U 25258C   25341.87287205  .00000829  00000+0  45718-3 0  9993", "line2": "2 66414  50.0056 282.5518 0008343 340.5242  19.5350 14.20411501  3968"}}, "geometry": {"type": "Point", "coordinates": [-46.01423625707104, 33.34759863369207]}}, {"type": "Feature", "properties": {"norad_id": 66415, "name": "HULIANWANG DIGUI 13D", "group": "last-30-days", "lat": 49.72416766376643, "lon": 2.573144306672853, "alt_km": 814.313217959042, "timestamp": "2025-12-08T08:58:59.555649+00:00", "meta": {"OBJECT_NAME": "HULIANWANG DIGUI 13D", "OBJECT_ID": "2025-258D", "EPOCH": "2025-12-07T15:42:47.052864", "MEAN_MOTION": 14.21453961, "ECCENTRICITY": 0.00091421, "INCLINATION": 50.0047, "RA_OF_ASC_NODE": 283.3927, "ARG_OF_PERICENTER": 345.1739, "MEAN_ANOMALY": 14.8903, "EPHEMERIS_TYPE": 0, "CLASSIFICATION_TYPE": "U", "NORAD_CAT_ID": 66415, "ELEMENT_SET_NO": 999, "REV_AT_EPOCH": 393, "BSTAR": 0.00031057861, "MEAN_MOTION_DOT": 5.25e-06, "MEAN_MOTION_DDOT": 0}, "tle": {"line1": "1 66415U 25258D   25341.65471126  .00000525  00000+0  31058-3 0  9992", "line2": "2 66415  50.0047 283.3927 0009142 345.1739  14.8903 14.21453961  3938"}}, "geometry": {"type": "Point", "coordinates": [2.573144306672853, 49.72416766376643]}}]}